{"type": "FeatureCollection", "features": [ {"type": "Feature", "properties": {"norad_id": 33153, "name": "INTELSAT 25 (IS-25)", "group": "intelsat", "lat": -1.277127435333376, "lon": -63.69651141523334, "alt_km": 35767.100909155335, "timestamp": "2025-12-26T15:29:39.105850+00:00", "meta": {"OBJECT_NAME": "INTELSAT 25 (IS-25)", "OBJECT_ID": "2008-034A", "EPOCH": "2025-12-26T00:24:38.640960", "MEAN_MOTION": 1.00271587, "ECCENTRICITY": 0.0004961, "INCLINATION": 2.2599, "RA_OF_ASC_NODE": 82.5049, "ARG_OF_PERICENTER": 190.2408, "MEAN_ANOMALY": 156.6895, "EPHEMERIS_TYPE": 0, "CLASSIFICATION_TYPE": "U", "NORAD_CAT_ID": 33153, "ELEMENT_SET_NO": 999, "REV_AT_EPOCH": 6395, "BSTAR": 0, "MEAN_MOTION_DOT": -2.03e-06, "MEAN_MOTION_DDOT": 0}, "tle": {"line1": "1 33153U 08034A   25360.01711390 -.00000203  00000+0  00000+0 0  9992", "line2": "2 33153   2.2599  82.5049 0004961 190.2408 156.6895  1.00271587 63950"}}, "geometry": {"type": "Point", "coordinates": [-63.69651141523334, -1.277127435333376]}}, {"type": "Feature", "properties": {"norad_id": 33376, "name": "GALAXY 19 (G-19)", "group": "intelsat", "lat": -0.03042893999068978, "lon": -129.23355361963635, "alt_km": 35778.797230653814, "timestamp": "2025-12-26T15:29:39.105862+00:00", "meta": {"OBJECT_NAME": "GALAXY 19 (G-19)", "OBJECT_ID": "2008-045A", "EPOCH": "2025-12-26T05:10:54.636096", "MEAN_MOTION": 1.00271721, "ECCENTRICITY": 0.00027832, "INCLINATION": 0.039, "RA_OF_ASC_NODE": 264.6478, "ARG_OF_PERICENTER": 17.7485, "MEAN_ANOMALY": 153.2937, "EPHEMERIS_TYPE": 0, "CLASSIFICATION_TYPE": "U", "NORAD_CAT_ID": 33376, "ELEMENT_SET_NO": 999, "REV_AT_EPOCH": 6316, "BSTAR": 0, "MEAN_MOTION_DOT": -1.17e-06, "MEAN_MOTION_DDOT": 0}, "tle": {"line1": "1 33376U 08045A   25360.21591014 -.00000117  00000+0  00000+0 0  9996", "line2": "2 33376   0.0390 264.6478 0002783  17.7485 153.2937  1.00271721 63162"}}, "geometry": {"type": "Point", "coordinates": [-129.23355361963635, -0.03042893999068978]}}, {"type": "Feature", "properties": {"norad_id": 35493, "name": "FM-5", "group": "intelsat", "lat": -0.021062352790558004, "lon": -118.35627474359693, "alt_km": 35786.21557474179, "timestamp": "2025-12-26T15:29:39.105873+00:00", "meta": {"OBJECT_NAME": "FM-5", "OBJECT_ID": "2009-034A", "EPOCH": "2025-12-25T21:13:02.840160", "MEAN_MOTION": 1.00269478, "ECCENTRICITY": 7.9e-05, "INCLINATION": 0.0148, "RA_OF_ASC_NODE": 303.8545, "ARG_OF_PERICENTER": 217.7513, "MEAN_ANOMALY": 165.1409, "EPHEMERIS_TYPE": 0, "CLASSIFICATION_TYPE": "U", "NORAD_CAT_ID": 35493, "ELEMENT_SET_NO": 999, "REV_AT_EPOCH": 4490, "BSTAR": 0, "MEAN_MOTION_DOT": -1.78e-06, "MEAN_MOTION_DDOT": 0}, "tle": {"line1": "1 35493U 09034A   25359.88406065 -.00000178  00000+0  00000+0 0  9996", "line2": "2 35493   0.0148 303.8545 0000790 217.7513 165.1409  1.00269478 44909"}}, "geometry": {"type": "Point", "coordinates": [-118.35627474359693, -0.021062352790558004]}}, {"type": "Feature", "properties": {"norad_id": 36097, "name": "INTELSAT 14 (IS-14)", "group": "intelsat", "lat": -0.028835136299841815, "lon": -77.20558056451347, "alt_km": 35775.063873714345, "timestamp": "2025-12-26T15:29:39.105885+00:00", "meta": {"OBJECT_NAME": "INTELSAT 14 (IS-14)", "OBJECT_ID": "2009-064A", "EPOCH": "2025-12-26T02:09:38.712960", "MEAN_MOTION": 1.00271887, "ECCENTRICITY": 0.00026122, "INCLINATION": 0.0118, "RA_OF_ASC_NODE": 37.0815, "ARG_OF_PERICENTER": 244.4887, "MEAN_ANOMALY": 160.6814, "EPHEMERIS_TYPE": 0, "CLASSIFICATION_TYPE": "U", "NORAD_CAT_ID": 36097, "ELEMENT_SET_NO": 999, "REV_AT_EPOCH": 5887, "BSTAR": 0, "MEAN_MOTION_DOT": -2.52e-06, "MEAN_MOTION_DDOT": 0}, "tle": {"line1": "1 36097U 09064A   25360.09003140 -.00000252  00000+0  00000+0 0  9995", "line2": "2 36097   0.0118  37.0815 0002612 244.4887 160.6814  1.00271887 58877"}}, "geometry": {"type": "Point", "coordinates": [-77.20558056451347, -0.028835136299841815]}}, {"type": "Feature", "properties": {"norad_id": 36106, "name": "INTELSAT 15 (IS-15)", "group": "intelsat", "lat": 0.008971444885165115, "lon": 52.9659098813459, "alt_km": 35792.563594857136, "timestamp": "2025-12-26T15:29:39.105896+00:00", "meta": {"OBJECT_NAME": "INTELSAT 15 (IS-15)", "OBJECT_ID": "2009-067A", "EPOCH": "2025-12-26T03:37:38.694720", "MEAN_MOTION": 1.00270174, "ECCENTRICITY": 0.00024301, "INCLINATION": 0.0154, "RA_OF_ASC_NODE": 51.9638, "ARG_OF_PERICENTER": 235.3713, "MEAN_ANOMALY": 307.1291, "EPHEMERIS_TYPE": 0, "CLASSIFICATION_TYPE": "U", "NORAD_CAT_ID": 36106, "ELEMENT_SET_NO": 999, "REV_AT_EPOCH": 3949, "BSTAR": 0, "MEAN_MOTION_DOT": -1.63e-06, "MEAN_MOTION_DDOT": 0}, "tle": {"line1": "1 36106U 09067A   25360.15114230 -.00000163  00000+0  00000+0 0  9990", "line2": "2 36106   0.0154  51.9638 0002430 235.3713 307.1291  1.00270174 39493"}}, "geometry": {"type": "Point", "coordinates": [52.9659098813459, 0.008971444885165115]}}, {"type": "Feature", "properties": {"norad_id": 36131, "name": "DIRECTV 12", "group": "intelsat", "lat": 0.013314706143522417, "lon": -134.9168744165375, "alt_km": 35785.520430590375, "timestamp": "2025-12-26T15:29:39.105908+00:00", "meta": {"OBJECT_NAME": "DIRECTV 12", "OBJECT_ID": "2009-075A", "EPOCH": "2025-12-25T14:17:27.635136", "MEAN_MOTION": 1.00273448, "ECCENTRICITY": 5.26e-05, "INCLINATION": 0.0362, "RA_OF_ASC_NODE": 165.2057, "ARG_OF_PERICENTER": 147.3669, "MEAN_ANOMALY": 253.4343, "EPHEMERIS_TYPE": 0, "CLASSIFICATION_TYPE": "U", "NORAD_CAT_ID": 36131, "ELEMENT_SET_NO": 999, "REV_AT_EPOCH": 4481, "BSTAR": 0, "MEAN_MOTION_DOT": -8.2e-07, "MEAN_MOTION_DDOT": 0}, "tle": {"line1": "1 36131U 09075A   25359.59545874 -.00000082  00000+0  00000+0 0  9995", "line2": "2 36131   0.0362 165.2057 0000526 147.3669 253.4343  1.00273448 44812"}}, "geometry": {"type": "Point", "coordinates": [-134.9168744165375, 0.013314706143522417]}}, {"type": "Feature", "properties": {"norad_id": 36397, "name": "INTELSAT 16 (IS-16)", "group": "intelsat", "lat": -0.02732821647777488, "lon": -108.39696945910076, "alt_km": 35778.16707164527, "timestamp": "2025-12-26T15:29:39.105920+00:00", "meta": {"OBJECT_NAME": "INTELSAT 16 (IS-16)", "OBJECT_ID": "2010-006A", "EPOCH": "2025-12-26T06:13:44.738112", "MEAN_MOTION": 1.00271813, "ECCENTRICITY": 0.00020061, "INCLINATION": 0.0108, "RA_OF_ASC_NODE": 2.696, "ARG_OF_PERICENTER": 269.5077, "MEAN_ANOMALY": 200.0576, "EPHEMERIS_TYPE": 0, "CLASSIFICATION_TYPE": "U", "NORAD_CAT_ID": 36397, "ELEMENT_SET_NO": 999, "REV_AT_EPOCH": 5792, "BSTAR": 0, "MEAN_MOTION_DOT": -2.23e-06, "MEAN_MOTION_DDOT": 0}, "tle": {"line1": "1 36397U 10006A   25360.25954558 -.00000223  00000+0  00000+0 0  9990", "line2": "2 36397   0.0108   2.6960 0002006 269.5077 200.0576  1.00271813 57922"}}, "geometry": {"type": "Point", "coordinates": [-108.39696945910076, -0.02732821647777488]}}, {"type": "Feature", "properties": {"norad_id": 37185, "name": "XM-5", "group": "intelsat", "lat": -0.0577992417486731, "lon": -147.37970311075546, "alt_km": 35781.621092628535, "timestamp": "2025-12-26T15:29:39.105931+00:00", "meta": {"OBJECT_NAME": "XM-5", "OBJECT_ID": "2010-053A", "EPOCH": "2025-12-26T05:44:38.581152", "MEAN_MOTION": 1.00272229, "ECCENTRICITY": 0.00020428, "INCLINATION": 0.0642, "RA_OF_ASC_NODE": 269.3131, "ARG_OF_PERICENTER": 243.7606, "MEAN_ANOMALY": 272.8803, "EPHEMERIS_TYPE": 0, "CLASSIFICATION_TYPE": "U", "NORAD_CAT_ID": 37185, "ELEMENT_SET_NO": 999, "REV_AT_EPOCH": 5574, "BSTAR": 0, "MEAN_MOTION_DOT": -1e-08, "MEAN_MOTION_DDOT": 0}, "tle": {"line1": "1 37185U 10053A   25360.23933543 -.00000001  00000+0  00000+0 0  9991", "line2": "2 37185   0.0642 269.3131 0002042 243.7606 272.8803  1.00272229 55745"}}, "geometry": {"type": "Point", "coordinates": [-147.37970311075546, -0.0577992417486731]}}, {"type": "Feature", "properties": {"norad_id": 37238, "name": "INTELSAT 17 (IS-17)", "group": "intelsat", "lat": -0.012506698127015145, "lon": 33.80034159162939, "alt_km": 35788.24209035837, "timestamp": "2025-12-26T15:29:39.105943+00:00", "meta": {"OBJECT_NAME": "INTELSAT 17 (IS-17)", "OBJECT_ID": "2010-065B", "EPOCH": "2025-12-26T02:10:38.891424", "MEAN_MOTION": 1.00271955, "ECCENTRICITY": 0.00028307, "INCLINATION": 0.028, "RA_OF_ASC_NODE": 73.4658, "ARG_OF_PERICENTER": 219.704, "MEAN_ANOMALY": 260.3074, "EPHEMERIS_TYPE": 0, "CLASSIFICATION_TYPE": "U", "NORAD_CAT_ID": 37238, "ELEMENT_SET_NO": 999, "REV_AT_EPOCH": 5151, "BSTAR": 0, "MEAN_MOTION_DOT": 0, "MEAN_MOTION_DDOT": 0}, "tle": {"line1": "1 37238U 10065B   25360.09072791  .00000000  00000+0  00000+0 0  9994", "line2": "2 37238   0.0280  73.4658 0002830 219.7040 260.3074  1.00271955 51518"}}, "geometry": {"type": "Point", "coordinates": [33.80034159162939, -0.012506698127015145]}}, {"type": "Feature", "properties": {"norad_id": 37392, "name": "INTELSAT 28 (IS-28)", "group": "intelsat", "lat": -0.7221372682583768, "lon": -63.89958222585187, "alt_km": 35771.50175994676, "timestamp": "2025-12-26T15:29:39.105954+00:00", "meta": {"OBJECT_NAME": "INTELSAT 28 (IS-28)", "OBJECT_ID": "2011-016A", "EPOCH": "2025-12-26T00:24:38.640960", "MEAN_MOTION": 1.00271568, "ECCENTRICITY": 0.00037974, "INCLINATION": 1.3569, "RA_OF_ASC_NODE": 84.9113, "ARG_OF_PERICENTER": 188.0675, "MEAN_ANOMALY": 156.2464, "EPHEMERIS_TYPE": 0, "CLASSIFICATION_TYPE": "U", "NORAD_CAT_ID": 37392, "ELEMENT_SET_NO": 999, "REV_AT_EPOCH": 5154, "BSTAR": 0, "MEAN_MOTION_DOT": -2.03e-06, "MEAN_MOTION_DDOT": 0}, "tle": {"line1": "1 37392U 11016A   25360.01711390 -.00000203  00000+0  00000+0 0  9995", "line2": "2 37392   1.3569  84.9113 0003797 188.0675 156.2464  1.00271568 51540"}}, "geometry": {"type": "Point", "coordinates": [-63.89958222585187, -0.7221372682583768]}}]}